[
    {
        "Altitude(m)": 717841.5068503924,
        "Argument of Periapsis(deg)": 0.011390121186627068,
        "Eccentricity": 0.0,
        "Inclination(deg)": 45.0,
        "Latitude(deg)": -45.05598516418719,
        "Longitude(deg)": -91.03289619317172,
        "Mean Anomaly(deg)": -86.6485833525192,
        "RAAN(deg)": 94.9892480585418,
        "Satellite Name": "Constellation 1 434",
        "Satellite Number": 434,
        "Semi-Major Axis(m)": 7083131.272910544,
        "Time(s)": 190
    },
    {
        "Altitude(m)": 717840.0275604897,
        "Argument of Periapsis(deg)": 0.011450069192872472,
        "Eccentricity": 0.0,
        "Inclination(deg)": 45.0,
        "Latitude(deg)": -45.05240908201526,
        "Longitude(deg)": -90.95166511751225,
        "Mean Anomaly(deg)": -86.58788221226926,
        "RAAN(deg)": 94.98919146937624,
        "Satellite Name": "Constellation 1 434",
        "Satellite Number": 434,
        "Semi-Major Axis(m)": 7083131.272910544,
        "Time(s)": 191
    },
    {
        "Altitude(m)": 717838.5220187255,
        "Argument of Periapsis(deg)": 0.01151001719911788,
        "Eccentricity": 0.0,
        "Inclination(deg)": 45.0,
        "Latitude(deg)": -45.048769262498965,
        "Longitude(deg)": -90.87044474904879,
        "Mean Anomaly(deg)": -86.52718107201935,
        "RAAN(deg)": 94.98913488021067,
        "Satellite Name": "Constellation 1 434",
        "Satellite Number": 434,
        "Semi-Major Axis(m)": 7083131.272910544,
        "Time(s)": 192
    },
    {
        "Altitude(m)": 717836.9902306349,
        "Argument of Periapsis(deg)": 0.011569965205363285,
        "Eccentricity": 0.0,
        "Inclination(deg)": 45.0,
        "Latitude(deg)": -45.0450657216186,
        "Longitude(deg)": -90.78923544223797,
        "Mean Anomaly(deg)": -86.46647993176948,
        "RAAN(deg)": 94.9890782910451,
        "Satellite Name": "Constellation 1 434",
        "Satellite Number": 434,
        "Semi-Major Axis(m)": 7083131.272910544,
        "Time(s)": 193
    },
    {
        "Altitude(m)": 717835.432201861,
        "Argument of Periapsis(deg)": 0.01162991321160869,
        "Eccentricity": 0.0,
        "Inclination(deg)": 45.0,
        "Latitude(deg)": -45.0412984756292,
        "Longitude(deg)": -90.70803704705163,
        "Mean Anomaly(deg)": -86.40577879151957,
        "RAAN(deg)": 94.98902170187952,
        "Satellite Name": "Constellation 1 434",
        "Satellite Number": 434,
        "Semi-Major Axis(m)": 7083131.272910544,
        "Time(s)": 194
    },
    {
        "Altitude(m)": 717833.8479381335,
        "Argument of Periapsis(deg)": 0.011689861217854095,
        "Eccentricity": 0.0,
        "Inclination(deg)": 45.0,
        "Latitude(deg)": -45.037467541059925,
        "Longitude(deg)": -90.62684991755837,
        "Mean Anomaly(deg)": -86.34507765126966,
        "RAAN(deg)": 94.98896511271396,
        "Satellite Name": "Constellation 1 434",
        "Satellite Number": 434,
        "Semi-Major Axis(m)": 7083131.272910544,
        "Time(s)": 195
    },
    {
        "Altitude(m)": 717832.2374452874,
        "Argument of Periapsis(deg)": 0.0117498092240995,
        "Eccentricity": 0.0,
        "Inclination(deg)": 45.0,
        "Latitude(deg)": -45.033572934713824,
        "Longitude(deg)": -90.54567423953043,
        "Mean Anomaly(deg)": -86.28437651101974,
        "RAAN(deg)": 94.98890852354837,
        "Satellite Name": "Constellation 1 434",
        "Satellite Number": 434,
        "Semi-Major Axis(m)": 7083131.272910544,
        "Time(s)": 196
    },
    {
        "Altitude(m)": 717830.6007292467,
        "Argument of Periapsis(deg)": 0.011809757230344905,
        "Eccentricity": 0.0,
        "Inclination(deg)": 45.0,
        "Latitude(deg)": -45.02961467366753,
        "Longitude(deg)": -90.46451019853812,
        "Mean Anomaly(deg)": -86.22367537076988,
        "RAAN(deg)": 94.98885193438282,
        "Satellite Name": "Constellation 1 434",
        "Satellite Number": 434,
        "Semi-Major Axis(m)": 7083131.272910544,
        "Time(s)": 197
    },
    {
        "Altitude(m)": 717828.9377960443,
        "Argument of Periapsis(deg)": 0.011869705236590313,
        "Eccentricity": 0.0,
        "Inclination(deg)": 45.0,
        "Latitude(deg)": -45.02559277527078,
        "Longitude(deg)": -90.38335797994627,
        "Mean Anomaly(deg)": -86.16297423051998,
        "RAAN(deg)": 94.98879534521726,
        "Satellite Name": "Constellation 1 434",
        "Satellite Number": 434,
        "Semi-Major Axis(m)": 7083131.272910544,
        "Time(s)": 198
    },
    {
        "Altitude(m)": 717827.2486517931,
        "Argument of Periapsis(deg)": 0.011929653242835719,
        "Eccentricity": 0.0,
        "Inclination(deg)": 45.0,
        "Latitude(deg)": -45.02150725714614,
        "Longitude(deg)": -90.30221776891179,
        "Mean Anomaly(deg)": -86.10227309027007,
        "RAAN(deg)": 94.98873875605167,
        "Satellite Name": "Constellation 1 434",
        "Satellite Number": 434,
        "Semi-Major Axis(m)": 7083131.272910544,
        "Time(s)": 199
    }
]